{
    "links": {
        "self": "http://www.neowsapp.com/rest/v1/neo/3879532?api_key=iIulBulltgU6a56xZRHN4H3l9WmuAYTsLGpBGhQ2"
    },
    "id": "3879532",
    "neo_reference_id": "3879532",
    "name": "(2019 UL4)",
    "designation": "2019 UL4",
    "nasa_jpl_url": "http://ssd.jpl.nasa.gov/sbdb.cgi?sstr=3879532",
    "absolute_magnitude_h": 25.3,
    "estimated_diameter": {
        "kilometers": {
            "estimated_diameter_min": 0.0231502122,
            "estimated_diameter_max": 0.0517654482
        },
        "meters": {
            "estimated_diameter_min": 23.150212221,
            "estimated_diameter_max": 51.7654482198
        },
        "miles": {
            "estimated_diameter_min": 0.0143848705,
            "estimated_diameter_max": 0.0321655483
        },
        "feet": {
            "estimated_diameter_min": 75.9521422633,
            "estimated_diameter_max": 169.8341531374
        }
    },
    "is_potentially_hazardous_asteroid": false,
    "close_approach_data": [
        {
            "close_approach_date": "2019-11-07",
            "close_approach_date_full": "2019-Nov-07 19:18",
            "epoch_date_close_approach": 1573154280000,
            "relative_velocity": {
                "kilometers_per_second": "9.0424498587",
                "kilometers_per_hour": "32552.8194912189",
                "miles_per_hour": "20227.0560888632"
            },
            "miss_distance": {
                "astronomical": "0.0427760328",
                "lunar": "16.6398767592",
                "kilometers": "6399203.393930136",
                "miles": "3976280.6064064368"
            },
            "orbiting_body": "Earth"
        }
    ],
    "orbital_data": {
        "orbit_id": "3",
        "orbit_determination_date": "2019-10-31 07:11:41",
        "first_observation_date": "2019-10-21",
        "last_observation_date": "2019-10-31",
        "data_arc_in_days": 10,
        "observations_used": 24,
        "orbit_uncertainty": "8",
        "minimum_orbit_intersection": ".0231999",
        "jupiter_tisserand_invariant": "3.917",
        "epoch_osculation": "2458779.5",
        "eccentricity": ".4556374413731161",
        "semi_major_axis": "1.806546213242332",
        "inclination": "8.765813622206309",
        "ascending_node_longitude": "225.6515775801556",
        "orbital_period": "886.8946609168997",
        "perihelion_distance": ".9834161189183039",
        "perihelion_argument": "208.1649322251742",
        "aphelion_distance": "2.62967630756636",
        "perihelion_time": "2458818.085565162526",
        "mean_anomaly": "344.3377076549896",
        "mean_motion": ".405910663198514",
        "equinox": "J2000",
        "orbit_class": {
            "orbit_class_type": "APO",
            "orbit_class_description": "Near-Earth asteroid orbits which cross the Earth’s orbit similar to that of 1862 Apollo",
            "orbit_class_range": "a (semi-major axis) > 1.0 AU; q (perihelion) < 1.017 AU"
        }
    },
    "is_sentry_object": false
}